start=new Date('2022-05-18T00:00:00.000Z').valueOf();
sats=[{"CENTER_NAME":"EARTH","APOAPSIS":"548.558","FILE":"3450137","GP_ID":"203782596","CLASSIFICATION_TYPE":"U","OBJECT_NAME":"STARLINK-2608","SEMIMAJOR_AXIS":"6925.357","RA_OF_ASC_NODE":"126.7162","MEAN_MOTION":"15.06397122","PERIAPSIS":"545.887","MEAN_ANOMALY":"309.1931","ARG_OF_PERICENTER":"50.9230","SITE":"AFETR","REF_FRAME":"TEME","EPHEMERIS_TYPE":"0","TLE_LINE2":"2 48365  53.0546 126.7162 0001928  50.9230 309.1931 15.06397122 57256","REV_AT_EPOCH":"5725","OBJECT_TYPE":"PAYLOAD","DECAY_DATE":null,"EPOCH":"2022-05-17T10:22:57.106560","TLE_LINE1":"1 48365U 21038N   22137.43260540 -.00000272  00000-0  64579-6 0  9998","LAUNCH_DATE":"2021-05-04","NORAD_CAT_ID":"48365","RCS_SIZE":"LARGE","PERIOD":"95.592","ECCENTRICITY":"0.00019280","COUNTRY_CODE":"US","MEAN_MOTION_DOT":"-0.00000272","ELEMENT_SET_NO":"999","MEAN_MOTION_DDOT":"0.0000000000000","BSTAR":"0.00000064579000","OBJECT_ID":"2021-038N","MEAN_ELEMENT_THEORY":"SGP4","INCLINATION":"53.0546","TIME_SYSTEM":"UTC"},{"MEAN_ELEMENT_THEORY":"SGP4","OBJECT_ID":"2021-038P","ELEMENT_SET_NO":"999","MEAN_MOTION_DDOT":"0.0000000000000","BSTAR":"0.00008766200000","MEAN_MOTION_DOT":"0.00001024","ECCENTRICITY":"0.00018710","COUNTRY_CODE":"US","LAUNCH_DATE":"2021-05-04","PERIOD":"95.592","RCS_SIZE":"LARGE","NORAD_CAT_ID":"48366","TIME_SYSTEM":"UTC","INCLINATION":"53.0554","MEAN_MOTION":"15.06405414","PERIAPSIS":"545.901","MEAN_ANOMALY":"302.9315","SEMIMAJOR_AXIS":"6925.332","RA_OF_ASC_NODE":"122.0587","FILE":"3450137","GP_ID":"203782858","OBJECT_NAME":"STARLINK-2631","CLASSIFICATION_TYPE":"U","CENTER_NAME":"EARTH","APOAPSIS":"548.493","TLE_LINE1":"1 48366U 21038P   22137.35380990  .00001024  00000-0  87662-4 0  9993","DECAY_DATE":null,"EPOCH":"2022-05-17T08:29:29.175360","OBJECT_TYPE":"PAYLOAD","TLE_LINE2":"2 48366  53.0554 122.0587 0001871  57.1854 302.9315 15.06405414 57301","REV_AT_EPOCH":"5730","REF_FRAME":"TEME","EPHEMERIS_TYPE":"0","ARG_OF_PERICENTER":"57.1854","SITE":"AFETR"},{"COUNTRY_CODE":"US","ECCENTRICITY":"0.00020650","RCS_SIZE":"LARGE","NORAD_CAT_ID":"48367","PERIOD":"95.592","LAUNCH_DATE":"2021-05-04","BSTAR":"0.00013776000000","MEAN_MOTION_DDOT":"0.0000000000000","ELEMENT_SET_NO":"999","MEAN_MOTION_DOT":"0.00001771","OBJECT_ID":"2021-038Q","MEAN_ELEMENT_THEORY":"SGP4","INCLINATION":"53.0545","TIME_SYSTEM":"UTC","APOAPSIS":"548.633","CENTER_NAME":"EARTH","GP_ID":"203783597","CLASSIFICATION_TYPE":"U","OBJECT_NAME":"STARLINK-2643","FILE":"3450137","SEMIMAJOR_AXIS":"6925.338","RA_OF_ASC_NODE":"122.0857","PERIAPSIS":"545.773","MEAN_ANOMALY":"302.8197","MEAN_MOTION":"15.06403330","EPHEMERIS_TYPE":"0","REF_FRAME":"TEME","SITE":"AFETR","ARG_OF_PERICENTER":"57.2991","OBJECT_TYPE":"PAYLOAD","REV_AT_EPOCH":"5730","TLE_LINE2":"2 48367  53.0545 122.0857 0002065  57.2991 302.8197 15.06403330 57303","EPOCH":"2022-05-17T08:24:11.149056","DECAY_DATE":null,"TLE_LINE1":"1 48367U 21038Q   22137.35012904  .00001771  00000-0  13776-3 0  9994"},{"DECAY_DATE":null,"EPOCH":"2022-05-17T10:24:54.022176","TLE_LINE1":"1 48368U 21038R   22137.43395859  .00001585  00000-0  12527-3 0  9993","REF_FRAME":"TEME","EPHEMERIS_TYPE":"0","ARG_OF_PERICENTER":"47.0096","SITE":"AFETR","OBJECT_TYPE":"PAYLOAD","TLE_LINE2":"2 48368  53.0552 121.6919 0002211  47.0096 313.1078 15.06404734 57326","REV_AT_EPOCH":"5732","RA_OF_ASC_NODE":"121.6919","SEMIMAJOR_AXIS":"6925.334","MEAN_MOTION":"15.06404734","PERIAPSIS":"545.668","MEAN_ANOMALY":"313.1078","CENTER_NAME":"EARTH","APOAPSIS":"548.730","FILE":"3450137","GP_ID":"203782348","CLASSIFICATION_TYPE":"U","OBJECT_NAME":"STARLINK-2623","INCLINATION":"53.0552","TIME_SYSTEM":"UTC","ELEMENT_SET_NO":"999","MEAN_MOTION_DDOT":"0.0000000000000","BSTAR":"0.00012527000000","MEAN_MOTION_DOT":"0.00001585","MEAN_ELEMENT_THEORY":"SGP4","OBJECT_ID":"2021-038R","ECCENTRICITY":"0.00022110","COUNTRY_CODE":"US","LAUNCH_DATE":"2021-05-04","RCS_SIZE":"LARGE","PERIOD":"95.592","NORAD_CAT_ID":"48368"},{"MEAN_MOTION_DOT":"0.00000406","ELEMENT_SET_NO":"999","MEAN_MOTION_DDOT":"0.0000000000000","BSTAR":"0.00004616500000","OBJECT_ID":"2021-038S","MEAN_ELEMENT_THEORY":"SGP4","LAUNCH_DATE":"2021-05-04","RCS_SIZE":"LARGE","PERIOD":"95.593","NORAD_CAT_ID":"48369","ECCENTRICITY":"0.00022420","COUNTRY_CODE":"US","TIME_SYSTEM":"UTC","INCLINATION":"53.0563","SEMIMAJOR_AXIS":"6925.373","RA_OF_ASC_NODE":"122.0924","MEAN_MOTION":"15.06392139","MEAN_ANOMALY":"310.9983","PERIAPSIS":"545.685","CENTER_NAME":"EARTH","APOAPSIS":"548.790","FILE":"3450137","GP_ID":"203782107","CLASSIFICATION_TYPE":"U","OBJECT_NAME":"STARLINK-2641","DECAY_DATE":null,"EPOCH":"2022-05-17T08:18:53.525376","TLE_LINE1":"1 48369U 21038S   22137.34645284  .00000406  00000-0  46165-4 0  9991","ARG_OF_PERICENTER":"49.1200","SITE":"AFETR","REF_FRAME":"TEME","EPHEMERIS_TYPE":"0","TLE_LINE2":"2 48369  53.0563 122.0924 0002242  49.1200 310.9983 15.06392139 57307","REV_AT_EPOCH":"5730","OBJECT_TYPE":"PAYLOAD"},{"EPOCH":"2022-05-17T16:11:15.762336","DECAY_DATE":null,"TLE_LINE1":"1 48370U 21038T   22137.67448799  .00001573  00000-0  12449-3 0  9994","SITE":"AFETR","ARG_OF_PERICENTER":"43.2130","EPHEMERIS_TYPE":"0","REF_FRAME":"TEME","REV_AT_EPOCH":"5794","TLE_LINE2":"2 48370  53.0555 120.6219 0002202  43.2130 316.9032 15.06406530 57946","OBJECT_TYPE":"PAYLOAD","SEMIMAJOR_AXIS":"6925.329","RA_OF_ASC_NODE":"120.6219","PERIAPSIS":"545.669","MEAN_ANOMALY":"316.9032","MEAN_MOTION":"15.06406530","APOAPSIS":"548.719","CENTER_NAME":"EARTH","OBJECT_NAME":"STARLINK-2621","GP_ID":"203790904","CLASSIFICATION_TYPE":"U","FILE":"3450366","INCLINATION":"53.0555","TIME_SYSTEM":"UTC","MEAN_MOTION_DOT":"0.00001573","MEAN_MOTION_DDOT":"0.0000000000000","BSTAR":"0.00012449000000","ELEMENT_SET_NO":"999","MEAN_ELEMENT_THEORY":"SGP4","OBJECT_ID":"2021-038T","RCS_SIZE":"LARGE","PERIOD":"95.592","NORAD_CAT_ID":"48370","LAUNCH_DATE":"2021-05-04","COUNTRY_CODE":"US","ECCENTRICITY":"0.00022020"},{"EPOCH":"2022-05-17T08:08:15.720576","DECAY_DATE":null,"TLE_LINE1":"1 48371U 21038U   22137.33907084  .00001189  00000-0  98686-4 0  9996","EPHEMERIS_TYPE":"0","REF_FRAME":"TEME","SITE":"AFETR","ARG_OF_PERICENTER":"52.1511","OBJECT_TYPE":"PAYLOAD","REV_AT_EPOCH":"5730","TLE_LINE2":"2 48371  53.0531 122.1339 0002010  52.1511 307.9660 15.06400621 57302","SEMIMAJOR_AXIS":"6925.347","RA_OF_ASC_NODE":"122.1339","PERIAPSIS":"545.820","MEAN_ANOMALY":"307.9660","MEAN_MOTION":"15.06400621","APOAPSIS":"548.604","CENTER_NAME":"EARTH","OBJECT_NAME":"STARLINK-2589","GP_ID":"203783109","CLASSIFICATION_TYPE":"U","FILE":"3450137","TIME_SYSTEM":"UTC","INCLINATION":"53.0531","MEAN_MOTION_DDOT":"0.0000000000000","BSTAR":"0.00009868600000","ELEMENT_SET_NO":"999","MEAN_MOTION_DOT":"0.00001189","MEAN_ELEMENT_THEORY":"SGP4","OBJECT_ID":"2021-038U","COUNTRY_CODE":"US","ECCENTRICITY":"0.00020100","RCS_SIZE":"LARGE","NORAD_CAT_ID":"48371","PERIOD":"95.592","LAUNCH_DATE":"2021-05-04"},{"REF_FRAME":"TEME","EPHEMERIS_TYPE":"0","SITE":"AFETR","ARG_OF_PERICENTER":"39.1853","OBJECT_TYPE":"PAYLOAD","TLE_LINE2":"2 48372  53.0542 122.1506 0002288  39.1853 320.9301 15.06409921 57301","REV_AT_EPOCH":"5730","DECAY_DATE":null,"EPOCH":"2022-05-17T08:02:57.413472","TLE_LINE1":"1 48372U 21038V   22137.33538673  .00001744  00000-0  13596-3 0  9994","CENTER_NAME":"EARTH","APOAPSIS":"548.768","FILE":"3450137","CLASSIFICATION_TYPE":"U","GP_ID":"203781859","OBJECT_NAME":"STARLINK-2572","RA_OF_ASC_NODE":"122.1506","SEMIMAJOR_AXIS":"6925.318","MEAN_MOTION":"15.06409921","PERIAPSIS":"545.599","MEAN_ANOMALY":"320.9301","INCLINATION":"53.0542","TIME_SYSTEM":"UTC","ECCENTRICITY":"0.00022880","COUNTRY_CODE":"US","LAUNCH_DATE":"2021-05-04","PERIOD":"95.592","RCS_SIZE":"LARGE","NORAD_CAT_ID":"48372","ELEMENT_SET_NO":"999","MEAN_MOTION_DDOT":"0.0000000000000","BSTAR":"0.00013596000000","MEAN_MOTION_DOT":"0.00001744","OBJECT_ID":"2021-038V","MEAN_ELEMENT_THEORY":"SGP4"},{"INCLINATION":"53.0519","TIME_SYSTEM":"UTC","LAUNCH_DATE":"2021-05-04","PERIOD":"95.592","RCS_SIZE":"LARGE","NORAD_CAT_ID":"48373","ECCENTRICITY":"0.00017350","COUNTRY_CODE":"US","MEAN_MOTION_DOT":"0.00002164","ELEMENT_SET_NO":"999","MEAN_MOTION_DDOT":"0.0000000000000","BSTAR":"0.00016409000000","MEAN_ELEMENT_THEORY":"SGP4","OBJECT_ID":"2021-038W","ARG_OF_PERICENTER":"62.9062","SITE":"AFETR","REF_FRAME":"TEME","EPHEMERIS_TYPE":"0","TLE_LINE2":"2 48373  53.0519 122.4624 0001735  62.9062 297.2103 15.06404047 57290","REV_AT_EPOCH":"5729","OBJECT_TYPE":"PAYLOAD","DECAY_DATE":null,"EPOCH":"2022-05-17T06:22:06.280608","TLE_LINE1":"1 48373U 21038W   22137.26535047  .00002164  00000-0  16409-3 0  9992","APOAPSIS":"548.403","CENTER_NAME":"EARTH","FILE":"3450137","GP_ID":"203782597","CLASSIFICATION_TYPE":"U","OBJECT_NAME":"STARLINK-2609","SEMIMAJOR_AXIS":"6925.336","RA_OF_ASC_NODE":"122.4624","MEAN_MOTION":"15.06404047","PERIAPSIS":"546.000","MEAN_ANOMALY":"297.2103"},{"RCS_SIZE":"LARGE","PERIOD":"95.592","NORAD_CAT_ID":"48374","LAUNCH_DATE":"2021-05-04","COUNTRY_CODE":"US","ECCENTRICITY":"0.00020220","MEAN_ELEMENT_THEORY":"SGP4","OBJECT_ID":"2021-038X","MEAN_MOTION_DOT":"0.00002715","MEAN_MOTION_DDOT":"0.0000000000000","BSTAR":"0.00020110000000","ELEMENT_SET_NO":"999","INCLINATION":"53.0530","TIME_SYSTEM":"UTC","OBJECT_NAME":"STARLINK-2604","GP_ID":"203791207","CLASSIFICATION_TYPE":"U","FILE":"3450375","CENTER_NAME":"EARTH","APOAPSIS":"548.611","MEAN_ANOMALY":"302.4004","PERIAPSIS":"545.810","MEAN_MOTION":"15.06401076","SEMIMAJOR_AXIS":"6925.345","RA_OF_ASC_NODE":"120.6889","REV_AT_EPOCH":"5794","TLE_LINE2":"2 48374  53.0530 120.6889 0002022  57.7181 302.4004 15.06401076 57941","OBJECT_TYPE":"PAYLOAD","ARG_OF_PERICENTER":"57.7181","SITE":"AFETR","EPHEMERIS_TYPE":"0","REF_FRAME":"TEME","TLE_LINE1":"1 48374U 21038X   22137.65974896  .00002715  00000-0  20110-3 0  9991","EPOCH":"2022-05-17T15:50:02.310144","DECAY_DATE":null}];
